CCSDS_OMM_VERS = 2.0
CREATION_DATE  = 
ORIGINATOR     = 

OBJECT_NAME    = STARLINK-36647
OBJECT_ID      = 2026-033D
CENTER_NAME    = EARTH
REF_FRAME      = TEME
TIME_SYSTEM    = UTC
MEAN_ELEMENT_THEORY = SGP/SGP4

EPOCH          = 2026-03-02T14:00:01.999872
MEAN_MOTION    = 15.81980629
ECCENTRICITY   = .00018117
INCLINATION    = 42.9981
RA_OF_ASC_NODE = 315.0439
ARG_OF_PERICENTER = 267.1701
MEAN_ANOMALY   = 237.4019

EPHEMERIS_TYPE = 0
CLASSIFICATION_TYPE = U
NORAD_CAT_ID   = 67824
ELEMENT_SET_NO = 999
REV_AT_EPOCH   = 352
BSTAR          = .22050736E-3
MEAN_MOTION_DOT = .46069E-3
MEAN_MOTION_DDOT = 0

CCSDS_OMM_VERS = 2.0
CREATION_DATE  = 
ORIGINATOR     = 

OBJECT_NAME    = STARLINK-36648
OBJECT_ID      = 2026-033E
CENTER_NAME    = EARTH
REF_FRAME      = TEME
TIME_SYSTEM    = UTC
MEAN_ELEMENT_THEORY = SGP/SGP4

EPOCH          = 2026-03-02T14:00:01.999872
MEAN_MOTION    = 15.81992112
ECCENTRICITY   = .00016777
INCLINATION    = 42.9980
RA_OF_ASC_NODE = 315.0333
ARG_OF_PERICENTER = 268.2411
MEAN_ANOMALY   = 240.6043

EPHEMERIS_TYPE = 0
CLASSIFICATION_TYPE = U
NORAD_CAT_ID   = 67825
ELEMENT_SET_NO = 999
REV_AT_EPOCH   = 352
BSTAR          = .50676075E-4
MEAN_MOTION_DOT = .10138E-3
MEAN_MOTION_DDOT = 0

CCSDS_OMM_VERS = 2.0
CREATION_DATE  = 
ORIGINATOR     = 

OBJECT_NAME    = STARLINK-35865
OBJECT_ID      = 2026-033F
CENTER_NAME    = EARTH
REF_FRAME      = TEME
TIME_SYSTEM    = UTC
MEAN_ELEMENT_THEORY = SGP/SGP4

EPOCH          = 2026-03-02T14:00:01.999872
MEAN_MOTION    = 15.82000671
ECCENTRICITY   = .00018967
INCLINATION    = 42.9978
RA_OF_ASC_NODE = 315.0226
ARG_OF_PERICENTER = 278.7980
MEAN_ANOMALY   = 234.3090

EPHEMERIS_TYPE = 0
CLASSIFICATION_TYPE = U
NORAD_CAT_ID   = 67826
ELEMENT_SET_NO = 999
REV_AT_EPOCH   = 352
BSTAR          = .88600255E-4
MEAN_MOTION_DOT = .18149E-3
MEAN_MOTION_DDOT = 0

CCSDS_OMM_VERS = 2.0
CREATION_DATE  = 
ORIGINATOR     = 

OBJECT_NAME    = STARLINK-36289
OBJECT_ID      = 2026-033G
CENTER_NAME    = EARTH
REF_FRAME      = TEME
TIME_SYSTEM    = UTC
MEAN_ELEMENT_THEORY = SGP/SGP4

EPOCH          = 2026-03-02T14:00:01.999872
MEAN_MOTION    = 15.81976903
ECCENTRICITY   = .00020672
INCLINATION    = 42.9980
RA_OF_ASC_NODE = 315.0118
ARG_OF_PERICENTER = 249.9309
MEAN_ANOMALY   = 267.4544

EPHEMERIS_TYPE = 0
CLASSIFICATION_TYPE = U
NORAD_CAT_ID   = 67827
ELEMENT_SET_NO = 999
REV_AT_EPOCH   = 352
BSTAR          = .32414932E-3
MEAN_MOTION_DOT = .68137E-3
MEAN_MOTION_DDOT = 0

CCSDS_OMM_VERS = 2.0
CREATION_DATE  = 
ORIGINATOR     = 

OBJECT_NAME    = STARLINK-36670
OBJECT_ID      = 2026-033H
CENTER_NAME    = EARTH
REF_FRAME      = TEME
TIME_SYSTEM    = UTC
MEAN_ELEMENT_THEORY = SGP/SGP4

EPOCH          = 2026-03-02T14:00:01.999872
MEAN_MOTION    = 15.81946972
ECCENTRICITY   = .0002063
INCLINATION    = 42.9982
RA_OF_ASC_NODE = 315.0014
ARG_OF_PERICENTER = 252.3549
MEAN_ANOMALY   = 269.3242

EPHEMERIS_TYPE = 0
CLASSIFICATION_TYPE = U
NORAD_CAT_ID   = 67828
ELEMENT_SET_NO = 999
REV_AT_EPOCH   = 352
BSTAR          = .45373557E-3
MEAN_MOTION_DOT = .95763E-3
MEAN_MOTION_DDOT = 0

CCSDS_OMM_VERS = 2.0
CREATION_DATE  = 
ORIGINATOR     = 

OBJECT_NAME    = STARLINK-36144
OBJECT_ID      = 2026-033J
CENTER_NAME    = EARTH
REF_FRAME      = TEME
TIME_SYSTEM    = UTC
MEAN_ELEMENT_THEORY = SGP/SGP4

EPOCH          = 2026-03-02T14:00:01.999872
MEAN_MOTION    = 15.81968047
ECCENTRICITY   = .00020343
INCLINATION    = 42.9979
RA_OF_ASC_NODE = 314.9896
ARG_OF_PERICENTER = 256.9029
MEAN_ANOMALY   = 269.0313

EPHEMERIS_TYPE = 0
CLASSIFICATION_TYPE = U
NORAD_CAT_ID   = 67829
ELEMENT_SET_NO = 999
REV_AT_EPOCH   = 352
BSTAR          = .31250668E-3
MEAN_MOTION_DOT = .65624E-3
MEAN_MOTION_DDOT = 0

CCSDS_OMM_VERS = 2.0
CREATION_DATE  = 
ORIGINATOR     = 

OBJECT_NAME    = STARLINK-36611
OBJECT_ID      = 2026-033K
CENTER_NAME    = EARTH
REF_FRAME      = TEME
TIME_SYSTEM    = UTC
MEAN_ELEMENT_THEORY = SGP/SGP4

EPOCH          = 2026-03-02T14:00:01.999872
MEAN_MOTION    = 15.81979410
ECCENTRICITY   = .00019254
INCLINATION    = 42.9983
RA_OF_ASC_NODE = 314.9794
ARG_OF_PERICENTER = 259.5723
MEAN_ANOMALY   = 270.6327

EPHEMERIS_TYPE = 0
CLASSIFICATION_TYPE = U
NORAD_CAT_ID   = 67830
ELEMENT_SET_NO = 999
REV_AT_EPOCH   = 352
BSTAR          = .20774476E-3
MEAN_MOTION_DOT = .43356E-3
MEAN_MOTION_DDOT = 0

CCSDS_OMM_VERS = 2.0
CREATION_DATE  = 
ORIGINATOR     = 

OBJECT_NAME    = STARLINK-36661
OBJECT_ID      = 2026-033L
CENTER_NAME    = EARTH
REF_FRAME      = TEME
TIME_SYSTEM    = UTC
MEAN_ELEMENT_THEORY = SGP/SGP4

EPOCH          = 2026-03-02T14:00:01.999872
MEAN_MOTION    = 15.82012014
ECCENTRICITY   = .00019718
INCLINATION    = 42.9982
RA_OF_ASC_NODE = 314.9687
ARG_OF_PERICENTER = 288.2304
MEAN_ANOMALY   = 246.2419

EPHEMERIS_TYPE = 0
CLASSIFICATION_TYPE = U
NORAD_CAT_ID   = 67831
ELEMENT_SET_NO = 999
REV_AT_EPOCH   = 352
BSTAR          = -.23935219E-4
MEAN_MOTION_DOT = -.557E-4
MEAN_MOTION_DDOT = 0

CCSDS_OMM_VERS = 2.0
CREATION_DATE  = 
ORIGINATOR     = 

OBJECT_NAME    = STARLINK-36662
OBJECT_ID      = 2026-033M
CENTER_NAME    = EARTH
REF_FRAME      = TEME
TIME_SYSTEM    = UTC
MEAN_ELEMENT_THEORY = SGP/SGP4

EPOCH          = 2026-03-02T14:00:01.999872
MEAN_MOTION    = 15.84387478
ECCENTRICITY   = .00021604
INCLINATION    = 42.9966
RA_OF_ASC_NODE = 314.2291
ARG_OF_PERICENTER = 269.0405
MEAN_ANOMALY   = 198.4104

EPHEMERIS_TYPE = 0
CLASSIFICATION_TYPE = U
NORAD_CAT_ID   = 67832
ELEMENT_SET_NO = 999
REV_AT_EPOCH   = 352
BSTAR          = .14444917E-4
MEAN_MOTION_DOT = .2849E-4
MEAN_MOTION_DDOT = 0

CCSDS_OMM_VERS = 2.0
CREATION_DATE  = 
ORIGINATOR     = 

OBJECT_NAME    = STARLINK-36659
OBJECT_ID      = 2026-033N
CENTER_NAME    = EARTH
REF_FRAME      = TEME
TIME_SYSTEM    = UTC
MEAN_ELEMENT_THEORY = SGP/SGP4

EPOCH          = 2026-03-02T14:00:01.999872
MEAN_MOTION    = 15.81940172
ECCENTRICITY   = .00015052
INCLINATION    = 42.9980
RA_OF_ASC_NODE = 314.9578
ARG_OF_PERICENTER = 251.7287
MEAN_ANOMALY   = 287.0380

EPHEMERIS_TYPE = 0
CLASSIFICATION_TYPE = U
NORAD_CAT_ID   = 67833
ELEMENT_SET_NO = 999
REV_AT_EPOCH   = 352
BSTAR          = .57875112E-3
MEAN_MOTION_DOT = .122634E-2
MEAN_MOTION_DDOT = 0

CCSDS_OMM_VERS = 2.0
CREATION_DATE  = 
ORIGINATOR     = 

OBJECT_NAME    = STARLINK-36655
OBJECT_ID      = 2026-033P
CENTER_NAME    = EARTH
REF_FRAME      = TEME
TIME_SYSTEM    = UTC
MEAN_ELEMENT_THEORY = SGP/SGP4

EPOCH          = 2026-03-02T14:00:01.999872
MEAN_MOTION    = 15.81963736
ECCENTRICITY   = .0001859
INCLINATION    = 42.9981
RA_OF_ASC_NODE = 314.9477
ARG_OF_PERICENTER = 262.9776
MEAN_ANOMALY   = 280.0545

EPHEMERIS_TYPE = 0
CLASSIFICATION_TYPE = U
NORAD_CAT_ID   = 67834
ELEMENT_SET_NO = 999
REV_AT_EPOCH   = 352
BSTAR          = .29330422E-3
MEAN_MOTION_DOT = .61516E-3
MEAN_MOTION_DDOT = 0

CCSDS_OMM_VERS = 2.0
CREATION_DATE  = 
ORIGINATOR     = 

OBJECT_NAME    = STARLINK-36657
OBJECT_ID      = 2026-033Q
CENTER_NAME    = EARTH
REF_FRAME      = TEME
TIME_SYSTEM    = UTC
MEAN_ELEMENT_THEORY = SGP/SGP4

EPOCH          = 2026-03-02T14:00:01.999872
MEAN_MOTION    = 15.81979208
ECCENTRICITY   = .00018095
INCLINATION    = 42.9980
RA_OF_ASC_NODE = 314.9363
ARG_OF_PERICENTER = 271.8693
MEAN_ANOMALY   = 275.4321

EPHEMERIS_TYPE = 0
CLASSIFICATION_TYPE = U
NORAD_CAT_ID   = 67835
ELEMENT_SET_NO = 999
REV_AT_EPOCH   = 352
BSTAR          = .19070626E-3
MEAN_MOTION_DOT = .39739E-3
MEAN_MOTION_DDOT = 0

