STARLINK-36647          
1 67824U 26033D   26061.58335648  .00046069  00000+0  22051-3 0  9995
2 67824  42.9981 315.0439 0001811 267.1701 237.4019 15.81980629  3527
STARLINK-36648          
1 67825U 26033E   26061.58335648  .00010138  00000+0  50676-4 0  9999
2 67825  42.9980 315.0333 0001677 268.2411 240.6043 15.81992112  3523
STARLINK-35865          
1 67826U 26033F   26061.58335648  .00018149  00000+0  88600-4 0  9998
2 67826  42.9978 315.0226 0001896 278.7980 234.3090 15.82000671  3525
STARLINK-36289          
1 67827U 26033G   26061.58335648  .00068137  00000+0  32415-3 0  9993
2 67827  42.9980 315.0118 0002067 249.9309 267.4544 15.81976903  3525
STARLINK-36670          
1 67828U 26033H   26061.58335648  .00095763  00000+0  45374-3 0  9997
2 67828  42.9982 315.0014 0002063 252.3549 269.3242 15.81946972  3522
STARLINK-36144          
1 67829U 26033J   26061.58335648  .00065624  00000+0  31251-3 0  9990
2 67829  42.9979 314.9896 0002034 256.9029 269.0313 15.81968047  3529
STARLINK-36611          
1 67830U 26033K   26061.58335648  .00043356  00000+0  20774-3 0  9998
2 67830  42.9983 314.9794 0001925 259.5723 270.6327 15.81979410  3520
STARLINK-36661          
1 67831U 26033L   26061.58335648 -.00005570  00000+0 -23935-4 0  9990
2 67831  42.9982 314.9687 0001971 288.2304 246.2419 15.82012014  3526
STARLINK-36662          
1 67832U 26033M   26061.58335648  .00002849  00000+0  14445-4 0  9991
2 67832  42.9966 314.2291 0002160 269.0405 198.4104 15.84387478  3523
STARLINK-36659          
1 67833U 26033N   26061.58335648  .00122634  00000+0  57875-3 0  9990
2 67833  42.9980 314.9578 0001505 251.7287 287.0380 15.81940172  3527
STARLINK-36655          
1 67834U 26033P   26061.58335648  .00061516  00000+0  29330-3 0  9997
2 67834  42.9981 314.9477 0001859 262.9776 280.0545 15.81963736  3523
STARLINK-36657          
1 67835U 26033Q   26061.58335648  .00039739  00000+0  19071-3 0  9991
2 67835  42.9980 314.9363 0001809 271.8693 275.4321 15.81979208  3520
